0073P      r  2006 06  8.185   0.93918   0.69330   198.776    69.904    11.388              9.0  4.0  73P-R/Schwassmann-Wachmann                               MPC 56797
0073P      s  2006 06  8.689   0.98977   0.69330   188.229    77.364    11.127              9.0  4.0  73P-S/Schwassmann-Wachmann                               MPC 56797
0073P      t  2027 12 12.4486  0.865388  0.714768  209.7831   57.5876    6.9336  20250726   9.0  4.0  73P-T/Schwassmann-Wachmann                               MPEC 2023-J29
0073P      u  2006 06  9.016   0.93962   0.69330   198.659    69.994    11.384              9.0  4.0  73P-U/Schwassmann-Wachmann                               MPC 56797
0073P      v  2006 06  8.477   0.91217   0.69330   204.943    65.236    11.651              9.0  4.0  73P-V/Schwassmann-Wachmann                               MPC 56797
0073P      w  2006 06  8.500   0.93906   0.69330   198.803    69.884    11.390              9.0  4.0  73P-W/Schwassmann-Wachmann                               MPC 56797
0073P      x  2006 06  8.566   0.93913   0.69330   198.778    69.900    11.388              9.0  4.0  73P-X/Schwassmann-Wachmann                               MPC 56798
0073P      y  2006 06  8.770   0.93911   0.69330   198.785    69.879    11.391              9.0  4.0  73P-Y/Schwassmann-Wachmann                               MPC 56798
0073P      z  2006 06  8.309   0.94204   0.69330   198.017    70.493    11.349              9.0  4.0  73P-Z/Schwassmann-Wachmann                               MPC 56798
0073P     aa  2006 06  9.086   0.93905   0.69330   198.804    69.883    11.390              9.0  4.0  73P-AA/Schwassmann-Wachmann                              MPC 56798
0073P     ab  2006 06  8.697   0.93906   0.69330   198.792    69.888    11.390              9.0  4.0  73P-AB/Schwassmann-Wachmann                              MPC 56798
0073P     ac  2006 06  8.693   0.93918   0.69330   198.766    69.914    11.387              9.0  4.0  73P-AC/Schwassmann-Wachmann                              MPC 56798
0073P     ad  2006 06  8.694   0.94167   0.69330   198.119    70.416    11.355              9.0  4.0  73P-AD/Schwassmann-Wachmann                              MPC 56798
0073P     ae  2006 06  8.352   0.93910   0.69330   198.790    69.891    11.390              9.0  4.0  73P-AE/Schwassmann-Wachmann                              MPC 56798
0073P     af  2006 06  6.841   0.94144   0.69330   198.217    70.302    11.356              9.0  4.0  73P-AF/Schwassmann-Wachmann                              MPC 56798
0073P     ag  2006 06  9.016   0.93921   0.69330   198.724    69.932    11.386              9.0  4.0  73P-AG/Schwassmann-Wachmann                              MPC 56798
0073P     ah  2006 06  8.628   0.94293   0.69330   197.755    70.695    11.331              9.0  4.0  73P-AH/Schwassmann-Wachmann                              MPC 56798
0073P     ai  2006 06  8.737   0.93912   0.69330   198.806    69.885    11.392              9.0  4.0  73P-AI/Schwassmann-Wachmann                              MPC 56798
0073P     aj  2006 06  8.740   0.93930   0.69330   198.663    70.041    11.385              9.0  4.0  73P-AJ/Schwassmann-Wachmann                              MPC 56799
0073P     ak  2006 06  8.395   0.93924   0.69330   198.822    69.784    11.389              9.0  4.0  73P-AK/Schwassmann-Wachmann                              MPC 56799
0073P     al  2006 06  8.456   0.93892   0.69330   198.857    69.843    11.395              9.0  4.0  73P-AL/Schwassmann-Wachmann                              MPC 56799
0073P     am  2006 06  8.266   0.93912   0.69330   198.815    69.876    11.394              9.0  4.0  73P-AM/Schwassmann-Wachmann                              MPC 56799
0073P     an  2006 06  8.328   0.93906   0.69330   198.820    69.870    11.393              9.0  4.0  73P-AN/Schwassmann-Wachmann                              MPC 56799
0073P     ao  2006 06  7.808   0.94408   0.69330   197.007    71.286    11.210              9.0  4.0  73P-AO/Schwassmann-Wachmann                              MPC 56799
0073P     ap  2006 06  6.685   0.93918   0.69330   198.794    69.895    11.393              9.0  4.0  73P-AP/Schwassmann-Wachmann                              MPC 56799
0073P     aq  2006 06  7.919   0.93920   0.69330   198.770    69.911    11.387              9.0  4.0  73P-AQ/Schwassmann-Wachmann                              MPC 56799
0073P     ar  2006 06  6.833   0.93937   0.69330   198.722    69.946    11.385              9.0  4.0  73P-AR/Schwassmann-Wachmann                              MPC 56799
0073P     as  2006 06  6.335   0.93922   0.69330   198.773    69.906    11.392              9.0  4.0  73P-AS/Schwassmann-Wachmann                              MPC 56799
0073P     at  2006 06  6.228   0.93925   0.69330   198.778    69.901    11.391              9.0  4.0  73P-AT/Schwassmann-Wachmann                              MPC 56799
0073P     au  2006 06  8.093   0.93929   0.69330   198.744    69.928    11.385              9.0  4.0  73P-AU/Schwassmann-Wachmann                              MPC 56799
0073P     av  2006 06  6.490   0.93930   0.69330   198.751    69.945    11.388              9.0  4.0  73P-AV/Schwassmann-Wachmann                              MPC 56800
0073P     aw  2006 06  7.766   0.93947   0.69330   198.673    69.982    11.377              9.0  4.0  73P-AW/Schwassmann-Wachmann                              MPC 56800
0073P     ax  2006 06  9.533   0.93912   0.69330   198.757    69.915    11.388              9.0  4.0  73P-AX/Schwassmann-Wachmann                              MPC 56800
0073P     ay  2006 06  8.760   0.93918   0.69330   198.750    69.923    11.385              9.0  4.0  73P-AY/Schwassmann-Wachmann                              MPC 56800
0073P     az  2006 06  6.515   0.93962   0.69330   198.644    70.002    11.371              9.0  4.0  73P-AZ/Schwassmann-Wachmann                              MPC 56800
0073P     ba  2006 06  6.436   0.93976   0.69330   198.588    70.042    11.364              9.0  4.0  73P-BA/Schwassmann-Wachmann                              MPC 56800
0073P     bb  2006 06  7.087   0.93912   0.69330   198.807    69.882    11.395              9.0  4.0  73P-BB/Schwassmann-Wachmann                              MPC 56800
0073P     bc  2006 06  6.670   0.93922   0.69330   198.778    69.901    11.391              9.0  4.0  73P-BC/Schwassmann-Wachmann                              MPC 56800
0073P     bd  2006 06  6.417   0.93998   0.69330   198.503    70.085    11.352              9.0  4.0  73P-BD/Schwassmann-Wachmann                              MPC 56800
0073P     be  2006 06  6.863   0.93902   0.69330   198.861    69.841    11.405              9.0  4.0  73P-BE/Schwassmann-Wachmann                              MPC 56800
0073P     bf  2006 06  6.992   0.93918   0.69330   198.752    69.908    11.390              9.0  4.0  73P-BF/Schwassmann-Wachmann                              MPC 56800
0073P     bg  2006 06  8.741   0.93915   0.69330   198.750    69.925    11.384              9.0  4.0  73P-BG/Schwassmann-Wachmann                              MPC 56800
0073P     bh  2006 06  8.568   0.93874   0.69330   198.947    69.752    11.410              9.0  4.0  73P-BH/Schwassmann-Wachmann                              MPC 56801
0073P     bi  2006 06  8.639   0.93905   0.69330   198.877    69.819    11.404              9.0  4.0  73P-BI/Schwassmann-Wachmann                              MPC 56801
0073P     bj  2006 06  8.669   0.93914   0.69330   198.776    69.905    11.389              9.0  4.0  73P-BJ/Schwassmann-Wachmann                              MPC 56801
0073P     bk  2006 06  8.884   0.93931   0.69330   198.698    69.970    11.379              9.0  4.0  73P-BK/Schwassmann-Wachmann                              MPC 56801
0073P     bl  2006 06  8.885   0.93923   0.69330   198.739    69.930    11.385              9.0  4.0  73P-BL/Schwassmann-Wachmann                              MPC 56801
0073P     bm  2006 06  8.938   0.93962   0.69330   198.546    70.086    11.364              9.0  4.0  73P-BM/Schwassmann-Wachmann                              MPC 56801
0073P     bn  2006 06  8.203   0.93905   0.69330   198.815    69.871    11.398              9.0  4.0  73P-BN/Schwassmann-Wachmann                              MPC 56801
0073P     bo  2006 06  8.259   0.93913   0.69330   198.765    69.903    11.390              9.0  4.0  73P-BO/Schwassmann-Wachmann                              MPC 56801
0073P     bp  2006 06  8.302   0.93910   0.69330   198.807    69.881    11.395              9.0  4.0  73P-BP/Schwassmann-Wachmann                              MPC 56801
0073P     bq  2006 06  8.297   0.93900   0.69330   198.862    69.836    11.404              9.0  4.0  73P-BQ/Schwassmann-Wachmann                              MPC 56801
0073P     br  2006 06  6.154   0.93921   0.69330   198.774    69.910    11.389              9.0  4.0  73P-BR/Schwassmann-Wachmann                              MPC 56957
0073P     bs  2006 06  5.831   0.93918   0.69330   198.814    69.885    11.399              9.0  4.0  73P-BS/Schwassmann-Wachmann                              MPC 56957
0073P     bt  2028 01 20.1288  0.935234  0.695782   76.0553  192.2774   10.6496  20250726  11.5  6.0  73P-BT/Schwassmann-Wachmann                              MPC106348
0073P     bu  2027 07  2.8651  0.925040  0.676364   73.6821  196.6226   10.8687  20250726  19.0  4.0  73P-BU/Schwassmann-Wachmann                              MPEC 2022-P18
0073P     bv  2028 01 18.4616  0.878609  0.715454  205.9397   60.5046    7.3056  20250726  19.0  4.0  73P-BV/Schwassmann-Wachmann                              MPEC 2022-X67
0073P     bw  2022 08 23.6004  0.966972  0.786473   71.6219  193.0855   10.2011  20250726  18.2  4.0  73P-BW/Schwassmann-Wachmann                              MPEC 2022-R15
0073P     bx  2028 01  4.1065  0.874630  0.714904  207.6558   58.9963    7.0417  20250726  17.5  4.0  73P-BX/Schwassmann-Wachmann                              MPEC 2023-A50
